GALAXY 25 (G-25)        
1 24812U 97026A   22230.75743748 -.00000013  00000+0  00000+0 0  9998
2 24812   3.8412  83.0440 0003769  36.2040 186.6251  1.00271659 92355
INTELSAT 5 (IS-5)       
1 24916U 97046A   22230.81753803 -.00000072  00000+0  00000+0 0  9990
2 24916   7.3568  60.6218 0003639 114.9825 252.0182  1.00272580 91608
GALAXY 11 (G-11)        
1 26038U 99071A   22230.83768132 -.00000171  00000+0  00000+0 0  9990
2 26038   3.1594  86.9587 0000507 189.3392 259.3280  1.00272973 83060
INTELSAT 9 (IS-9)       
1 26451U 00043A   22230.84631416 -.00000297  00000+0  00000+0 0  9994
2 26451   7.3434  60.8029 0002367 103.0165  58.0389  1.00271804 30122
INTELSAT 1R (IS-1R)     
1 26608U 00072A   22230.88755994 -.00000148  00000+0  00000+0 0  9997
2 26608   4.6169  80.0702 0000612 301.8432  61.9173  1.00271748 27306
INTELSAT 10 (IS-10)     
1 26766U 01019A   22230.81989244  .00000025  00000+0  00000+0 0  9997
2 26766   5.7224  72.8433 0002372  66.7113 300.5481  1.00273269 31605
INTELSAT 901 (IS-901)   
1 26824U 01024A   22230.85743808 -.00000209  00000+0  00000+0 0  9991
2 26824   0.0470 275.0108 0001018 261.3829  71.9459  1.00272251  8956
INTELSAT 902 (IS-902)   
1 26900U 01039A   22230.84622696 -.00000290  00000+0  00000+0 0  9992
2 26900   2.5576  88.3407 0002586  59.5009  73.8927  1.00271774 76674
INTELSAT 904 (IS-904)   
1 27380U 02007A   22230.85032537 -.00000222  00000+0  00000+0 0  9996
2 27380   3.3901  85.2986 0002913  72.6090  85.8824  1.00272035 37741
DIRECTV 5 (TEMPO 1)     
1 27426U 02023A   22230.63682899 -.00000063  00000+0  00000+0 0  9996
2 27426   1.2825  92.5304 0003191  57.1128 296.4545  1.00272017 74097
INTELSAT 905 (IS-905)   
1 27438U 02027A   22230.85743808 -.00000193  00000+0  00000+0 0  9999
2 27438   3.2119  86.0374 0002630  66.3752  98.9577  1.00272380 37345
GALAXY 3C (G-3C)        
1 27445U 02030A   22230.83733252 -.00000159  00000+0  00000+0 0  9993
2 27445   0.1301  83.3524 0000385 222.1849 228.2104  1.00271915 32479
INTELSAT 906 (IS-906)   
1 27513U 02041A   22230.64197135  .00000006  00000+0  00000+0 0  9994
2 27513   2.2259  89.8131 0003073  52.8969 119.5184  1.00271068 73006
GALAXY 12 (G-12)        
1 27715U 03013B   22230.61535880  .00000049  00000+0  00000+0 0  9995
2 27715   3.4223  84.9380 0001862  80.0913 254.4392  1.00271945 38063
GALAXY 23 (G-23)        
1 27854U 03034A   22230.62359181  .00000006  00000+0  00000+0 0  9994
2 27854   0.0687 270.2252 0002971 243.5618 276.6752  1.00271636 69711
GALAXY 13 (HORIZONS-1)  
1 27954U 03044A   22230.36618166  .00000040  00000+0  00000+0 0  9996
2 27954   0.0213  99.4699 0000618 255.9845 336.0604  1.00272881 69123
INTELSAT 10-02          
1 28358U 04022A   22230.35380266 -.00000018  00000+0  00000+0 0  9994
2 28358   0.0451 275.9042 0000627 266.7739 270.3889  1.00274176 66605
