[{"OBJECT_NAME":"GALAXY 25 (G-25)","OBJECT_ID":"1997-026A","EPOCH":"2022-08-18T18:10:42.598272","MEAN_MOTION":1.00271659,"ECCENTRICITY":0.0003769,"INCLINATION":3.8412,"RA_OF_ASC_NODE":83.044,"ARG_OF_PERICENTER":36.204,"MEAN_ANOMALY":186.6251,"EPHEMERIS_TYPE":0,"CLASSIFICATION_TYPE":"U","NORAD_CAT_ID":24812,"ELEMENT_SET_NO":999,"REV_AT_EPOCH":9235,"BSTAR":0,"MEAN_MOTION_DOT":-1.3e-7,"MEAN_MOTION_DDOT":0},{"OBJECT_NAME":"INTELSAT 5 (IS-5)","OBJECT_ID":"1997-046A","EPOCH":"2022-08-18T19:37:15.285792","MEAN_MOTION":1.0027258,"ECCENTRICITY":0.0003639,"INCLINATION":7.3568,"RA_OF_ASC_NODE":60.6218,"ARG_OF_PERICENTER":114.9825,"MEAN_ANOMALY":252.0182,"EPHEMERIS_TYPE":0,"CLASSIFICATION_TYPE":"U","NORAD_CAT_ID":24916,"ELEMENT_SET_NO":999,"REV_AT_EPOCH":9160,"BSTAR":0,"MEAN_MOTION_DOT":-7.2e-7,"MEAN_MOTION_DDOT":0},{"OBJECT_NAME":"GALAXY 11 (G-11)","OBJECT_ID":"1999-071A","EPOCH":"2022-08-18T20:06:15.666048","MEAN_MOTION":1.00272973,"ECCENTRICITY":5.07e-5,"INCLINATION":3.1594,"RA_OF_ASC_NODE":86.9587,"ARG_OF_PERICENTER":189.3392,"MEAN_ANOMALY":259.328,"EPHEMERIS_TYPE":0,"CLASSIFICATION_TYPE":"U","NORAD_CAT_ID":26038,"ELEMENT_SET_NO":999,"REV_AT_EPOCH":8306,"BSTAR":0,"MEAN_MOTION_DOT":-1.71e-6,"MEAN_MOTION_DDOT":0},{"OBJECT_NAME":"INTELSAT 9 (IS-9)","OBJECT_ID":"2000-043A","EPOCH":"2022-08-18T20:18:41.543424","MEAN_MOTION":1.00271804,"ECCENTRICITY":0.0002367,"INCLINATION":7.3434,"RA_OF_ASC_NODE":60.8029,"ARG_OF_PERICENTER":103.0165,"MEAN_ANOMALY":58.0389,"EPHEMERIS_TYPE":0,"CLASSIFICATION_TYPE":"U","NORAD_CAT_ID":26451,"ELEMENT_SET_NO":999,"REV_AT_EPOCH":3012,"BSTAR":0,"MEAN_MOTION_DOT":-2.97e-6,"MEAN_MOTION_DDOT":0},{"OBJECT_NAME":"INTELSAT 1R (IS-1R)","OBJECT_ID":"2000-072A","EPOCH":"2022-08-18T21:18:05.178816","MEAN_MOTION":1.00271748,"ECCENTRICITY":6.12e-5,"INCLINATION":4.6169,"RA_OF_ASC_NODE":80.0702,"ARG_OF_PERICENTER":301.8432,"MEAN_ANOMALY":61.9173,"EPHEMERIS_TYPE":0,"CLASSIFICATION_TYPE":"U","NORAD_CAT_ID":26608,"ELEMENT_SET_NO":999,"REV_AT_EPOCH":2730,"BSTAR":0,"MEAN_MOTION_DOT":-1.48e-6,"MEAN_MOTION_DDOT":0},{"OBJECT_NAME":"INTELSAT 10 (IS-10)","OBJECT_ID":"2001-019A","EPOCH":"2022-08-18T19:40:38.706816","MEAN_MOTION":1.00273269,"ECCENTRICITY":0.0002372,"INCLINATION":5.7224,"RA_OF_ASC_NODE":72.8433,"ARG_OF_PERICENTER":66.7113,"MEAN_ANOMALY":300.5481,"EPHEMERIS_TYPE":0,"CLASSIFICATION_TYPE":"U","NORAD_CAT_ID":26766,"ELEMENT_SET_NO":999,"REV_AT_EPOCH":3160,"BSTAR":0,"MEAN_MOTION_DOT":2.5e-7,"MEAN_MOTION_DDOT":0},{"OBJECT_NAME":"INTELSAT 901 (IS-901)","OBJECT_ID":"2001-024A","EPOCH":"2022-08-18T20:34:42.650112","MEAN_MOTION":1.00272251,"ECCENTRICITY":0.0001018,"INCLINATION":0.047,"RA_OF_ASC_NODE":275.0108,"ARG_OF_PERICENTER":261.3829,"MEAN_ANOMALY":71.9459,"EPHEMERIS_TYPE":0,"CLASSIFICATION_TYPE":"U","NORAD_CAT_ID":26824,"ELEMENT_SET_NO":999,"REV_AT_EPOCH":895,"BSTAR":0,"MEAN_MOTION_DOT":-2.09e-6,"MEAN_MOTION_DDOT":0},{"OBJECT_NAME":"INTELSAT 902 (IS-902)","OBJECT_ID":"2001-039A","EPOCH":"2022-08-18T20:18:34.009344","MEAN_MOTION":1.00271774,"ECCENTRICITY":0.0002586,"INCLINATION":2.5576,"RA_OF_ASC_NODE":88.3407,"ARG_OF_PERICENTER":59.5009,"MEAN_ANOMALY":73.8927,"EPHEMERIS_TYPE":0,"CLASSIFICATION_TYPE":"U","NORAD_CAT_ID":26900,"ELEMENT_SET_NO":999,"REV_AT_EPOCH":7667,"BSTAR":0,"MEAN_MOTION_DOT":-2.9e-6,"MEAN_MOTION_DDOT":0},{"OBJECT_NAME":"INTELSAT 904 (IS-904)","OBJECT_ID":"2002-007A","EPOCH":"2022-08-18T20:24:28.111968","MEAN_MOTION":1.00272035,"ECCENTRICITY":0.0002913,"INCLINATION":3.3901,"RA_OF_ASC_NODE":85.2986,"ARG_OF_PERICENTER":72.609,"MEAN_ANOMALY":85.8824,"EPHEMERIS_TYPE":0,"CLASSIFICATION_TYPE":"U","NORAD_CAT_ID":27380,"ELEMENT_SET_NO":999,"REV_AT_EPOCH":3774,"BSTAR":0,"MEAN_MOTION_DOT":-2.22e-6,"MEAN_MOTION_DDOT":0},{"OBJECT_NAME":"DIRECTV 5 (TEMPO 1)","OBJECT_ID":"2002-023A","EPOCH":"2022-08-18T15:17:02.024736","MEAN_MOTION":1.00272017,"ECCENTRICITY":0.0003191,"INCLINATION":1.2825,"RA_OF_ASC_NODE":92.5304,"ARG_OF_PERICENTER":57.1128,"MEAN_ANOMALY":296.4545,"EPHEMERIS_TYPE":0,"CLASSIFICATION_TYPE":"U","NORAD_CAT_ID":27426,"ELEMENT_SET_NO":999,"REV_AT_EPOCH":7409,"BSTAR":0,"MEAN_MOTION_DOT":-6.3e-7,"MEAN_MOTION_DDOT":0},{"OBJECT_NAME":"INTELSAT 905 (IS-905)","OBJECT_ID":"2002-027A","EPOCH":"2022-08-18T20:34:42.650112","MEAN_MOTION":1.0027238,"ECCENTRICITY":0.000263,"INCLINATION":3.2119,"RA_OF_ASC_NODE":86.0374,"ARG_OF_PERICENTER":66.3752,"MEAN_ANOMALY":98.9577,"EPHEMERIS_TYPE":0,"CLASSIFICATION_TYPE":"U","NORAD_CAT_ID":27438,"ELEMENT_SET_NO":999,"REV_AT_EPOCH":3734,"BSTAR":0,"MEAN_MOTION_DOT":-1.93e-6,"MEAN_MOTION_DDOT":0},{"OBJECT_NAME":"GALAXY 3C (G-3C)","OBJECT_ID":"2002-030A","EPOCH":"2022-08-18T20:05:45.529728","MEAN_MOTION":1.00271915,"ECCENTRICITY":3.85e-5,"INCLINATION":0.1301,"RA_OF_ASC_NODE":83.3524,"ARG_OF_PERICENTER":222.1849,"MEAN_ANOMALY":228.2104,"EPHEMERIS_TYPE":0,"CLASSIFICATION_TYPE":"U","NORAD_CAT_ID":27445,"ELEMENT_SET_NO":999,"REV_AT_EPOCH":3247,"BSTAR":0,"MEAN_MOTION_DOT":-1.59e-6,"MEAN_MOTION_DDOT":0},{"OBJECT_NAME":"INTELSAT 906 (IS-906)","OBJECT_ID":"2002-041A","EPOCH":"2022-08-18T15:24:26.324640","MEAN_MOTION":1.00271068,"ECCENTRICITY":0.0003073,"INCLINATION":2.2259,"RA_OF_ASC_NODE":89.8131,"ARG_OF_PERICENTER":52.8969,"MEAN_ANOMALY":119.5184,"EPHEMERIS_TYPE":0,"CLASSIFICATION_TYPE":"U","NORAD_CAT_ID":27513,"ELEMENT_SET_NO":999,"REV_AT_EPOCH":7300,"BSTAR":0,"MEAN_MOTION_DOT":6.0e-8,"MEAN_MOTION_DDOT":0},{"OBJECT_NAME":"GALAXY 12 (G-12)","OBJECT_ID":"2003-013B","EPOCH":"2022-08-18T14:46:07.000320","MEAN_MOTION":1.00271945,"ECCENTRICITY":0.0001862,"INCLINATION":3.4223,"RA_OF_ASC_NODE":84.938,"ARG_OF_PERICENTER":80.0913,"MEAN_ANOMALY":254.4392,"EPHEMERIS_TYPE":0,"CLASSIFICATION_TYPE":"U","NORAD_CAT_ID":27715,"ELEMENT_SET_NO":999,"REV_AT_EPOCH":3806,"BSTAR":0,"MEAN_MOTION_DOT":4.9e-7,"MEAN_MOTION_DDOT":0},{"OBJECT_NAME":"GALAXY 23 (G-23)","OBJECT_ID":"2003-034A","EPOCH":"2022-08-18T14:57:58.332384","MEAN_MOTION":1.00271636,"ECCENTRICITY":0.0002971,"INCLINATION":0.0687,"RA_OF_ASC_NODE":270.2252,"ARG_OF_PERICENTER":243.5618,"MEAN_ANOMALY":276.6752,"EPHEMERIS_TYPE":0,"CLASSIFICATION_TYPE":"U","NORAD_CAT_ID":27854,"ELEMENT_SET_NO":999,"REV_AT_EPOCH":6971,"BSTAR":0,"MEAN_MOTION_DOT":6.0e-8,"MEAN_MOTION_DDOT":0},{"OBJECT_NAME":"GALAXY 13 (HORIZONS-1)","OBJECT_ID":"2003-044A","EPOCH":"2022-08-18T08:47:18.095424","MEAN_MOTION":1.00272881,"ECCENTRICITY":6.18e-5,"INCLINATION":0.0213,"RA_OF_ASC_NODE":99.4699,"ARG_OF_PERICENTER":255.9845,"MEAN_ANOMALY":336.0604,"EPHEMERIS_TYPE":0,"CLASSIFICATION_TYPE":"U","NORAD_CAT_ID":27954,"ELEMENT_SET_NO":999,"REV_AT_EPOCH":6912,"BSTAR":0,"MEAN_MOTION_DOT":4.0e-7,"MEAN_MOTION_DDOT":0},{"OBJECT_NAME":"INTELSAT 10-02","OBJECT_ID":"2004-022A","EPOCH":"2022-08-18T08:29:28.549824","MEAN_MOTION":1.00274176,"ECCENTRICITY":6.27e-5,"INCLINATION":0.0451,"RA_OF_ASC_NODE":275.9042,"ARG_OF_PERICENTER":266.7739,"MEAN_ANOMALY":270.3889,"EPHEMERIS_TYPE":0,"CLASSIFICATION_TYPE":"U","NORAD_CAT_ID":28358,"ELEMENT_SET_NO":999,"REV_AT_EPOCH":6660,"BSTAR":0,"MEAN_MOTION_DOT":-1.8e-7,"MEAN_MOTION_DDOT":0}]